[{"OBJECT_NAME":"STARLINK-33743","OBJECT_ID":"2025-069H","EPOCH":"2026-03-09T10:23:22.279200","MEAN_MOTION":15.30179898,"ECCENTRICITY":0.00011326,"INCLINATION":53.1579,"RA_OF_ASC_NODE":143.7974,"ARG_OF_PERICENTER":70.0219,"MEAN_ANOMALY":290.0903,"EPHEMERIS_TYPE":0,"CLASSIFICATION_TYPE":"U","NORAD_CAT_ID":63440,"ELEMENT_SET_NO":999,"REV_AT_EPOCH":5325,"BSTAR":0.00039775138,"MEAN_MOTION_DOT":0.00011432,"MEAN_MOTION_DDOT":0},{"OBJECT_NAME":"CP5","OBJECT_ID":"2012-048F","EPOCH":"2026-03-09T13:13:18.209280","MEAN_MOTION":15.25131456,"ECCENTRICITY":0.0097184,"INCLINATION":64.6452,"RA_OF_ASC_NODE":121.238,"ARG_OF_PERICENTER":206.221,"MEAN_ANOMALY":153.3981,"EPHEMERIS_TYPE":0,"CLASSIFICATION_TYPE":"U","NORAD_CAT_ID":38763,"ELEMENT_SET_NO":999,"REV_AT_EPOCH":10155,"BSTAR":0.00057686,"MEAN_MOTION_DOT":0.00016437,"MEAN_MOTION_DDOT":0}]
